[{"OBJECT_NAME":"STARLINK-3185","OBJECT_ID":"2022-005AS","EPOCH":"2025-10-07T08:39:22.405536","MEAN_MOTION":15.08843362,"ECCENTRICITY":0.00013943,"INCLINATION":53.2169,"RA_OF_ASC_NODE":267.4504,"ARG_OF_PERICENTER":86.1243,"MEAN_ANOMALY":273.9909,"EPHEMERIS_TYPE":0,"CLASSIFICATION_TYPE":"U","NORAD_CAT_ID":51144,"ELEMENT_SET_NO":999,"REV_AT_EPOCH":20559,"BSTAR":0.00013053862,"MEAN_MOTION_DOT":1.79e-5,"MEAN_MOTION_DDOT":0},{"OBJECT_NAME":"STARLINK-3354","OBJECT_ID":"2022-005AU","EPOCH":"2025-10-07T08:49:58.716480","MEAN_MOTION":15.08855469,"ECCENTRICITY":0.00013995,"INCLINATION":53.2164,"RA_OF_ASC_NODE":267.4197,"ARG_OF_PERICENTER":81.4396,"MEAN_ANOMALY":278.6755,"EPHEMERIS_TYPE":0,"CLASSIFICATION_TYPE":"U","NORAD_CAT_ID":51146,"ELEMENT_SET_NO":999,"REV_AT_EPOCH":20558,"BSTAR":0.00013271778,"MEAN_MOTION_DOT":1.826e-5,"MEAN_MOTION_DDOT":0},{"OBJECT_NAME":"STARLINK-3352","OBJECT_ID":"2022-005AV","EPOCH":"2025-10-07T08:57:34.943904","MEAN_MOTION":15.13099372,"ECCENTRICITY":0.00047327,"INCLINATION":53.2133,"RA_OF_ASC_NODE":276.3021,"ARG_OF_PERICENTER":9.4126,"MEAN_ANOMALY":350.6956,"EPHEMERIS_TYPE":0,"CLASSIFICATION_TYPE":"U","NORAD_CAT_ID":51147,"ELEMENT_SET_NO":999,"REV_AT_EPOCH":20546,"BSTAR":0.0016470246,"MEAN_MOTION_DOT":0.0002932,"MEAN_MOTION_DDOT":0},{"OBJECT_NAME":"STARLINK-3359","OBJECT_ID":"2022-005AW","EPOCH":"2025-10-07T10:02:52.446048","MEAN_MOTION":15.08839777,"ECCENTRICITY":0.00013771,"INCLINATION":53.2161,"RA_OF_ASC_NODE":277.3859,"ARG_OF_PERICENTER":92.9609,"MEAN_ANOMALY":267.1541,"EPHEMERIS_TYPE":0,"CLASSIFICATION_TYPE":"U","NORAD_CAT_ID":51148,"ELEMENT_SET_NO":999,"REV_AT_EPOCH":20545,"BSTAR":5.9634305e-5,"MEAN_MOTION_DOT":6.61e-6,"MEAN_MOTION_DDOT":0},{"OBJECT_NAME":"STARLINK-3360","OBJECT_ID":"2022-005AX","EPOCH":"2025-10-07T09:04:31.213056","MEAN_MOTION":15.08835866,"ECCENTRICITY":0.00013777,"INCLINATION":53.2168,"RA_OF_ASC_NODE":277.182,"ARG_OF_PERICENTER":88.5096,"MEAN_ANOMALY":271.6054,"EPHEMERIS_TYPE":0,"CLASSIFICATION_TYPE":"U","NORAD_CAT_ID":51149,"ELEMENT_SET_NO":999,"REV_AT_EPOCH":20545,"BSTAR":5.6782439e-5,"MEAN_MOTION_DOT":6.16e-6,"MEAN_MOTION_DDOT":0},{"OBJECT_NAME":"STARLINK-3357","OBJECT_ID":"2022-005AY","EPOCH":"2025-10-07T05:58:57.204480","MEAN_MOTION":15.08840811,"ECCENTRICITY":0.00013623,"INCLINATION":53.2163,"RA_OF_ASC_NODE":267.5566,"ARG_OF_PERICENTER":91.2748,"MEAN_ANOMALY":268.84,"EPHEMERIS_TYPE":0,"CLASSIFICATION_TYPE":"U","NORAD_CAT_ID":51150,"ELEMENT_SET_NO":999,"REV_AT_EPOCH":20558,"BSTAR":7.0520129e-5,"MEAN_MOTION_DOT":8.35e-6,"MEAN_MOTION_DDOT":0},{"OBJECT_NAME":"STARLINK-3361","OBJECT_ID":"2022-005AZ","EPOCH":"2025-10-07T11:15:00.349056","MEAN_MOTION":15.85392718,"ECCENTRICITY":0.0005124,"INCLINATION":53.1946,"RA_OF_ASC_NODE":184.3127,"ARG_OF_PERICENTER":96.192,"MEAN_ANOMALY":263.9689,"EPHEMERIS_TYPE":0,"CLASSIFICATION_TYPE":"U","NORAD_CAT_ID":51151,"ELEMENT_SET_NO":999,"REV_AT_EPOCH":20677,"BSTAR":0.00096945575,"MEAN_MOTION_DOT":0.0024288,"MEAN_MOTION_DDOT":0},{"OBJECT_NAME":"STARLINK-3364","OBJECT_ID":"2022-005BA","EPOCH":"2025-10-07T10:06:41.289408","MEAN_MOTION":15.08835107,"ECCENTRICITY":0.00013115,"INCLINATION":53.2162,"RA_OF_ASC_NODE":276.7858,"ARG_OF_PERICENTER":84.9932,"MEAN_ANOMALY":275.121,"EPHEMERIS_TYPE":0,"CLASSIFICATION_TYPE":"U","NORAD_CAT_ID":51152,"ELEMENT_SET_NO":999,"REV_AT_EPOCH":20546,"BSTAR":0.00018345337,"MEAN_MOTION_DOT":2.633e-5,"MEAN_MOTION_DDOT":0},{"OBJECT_NAME":"STARLINK-3181","OBJECT_ID":"2022-010F","EPOCH":"2025-10-07T06:59:59.281440","MEAN_MOTION":15.08824535,"ECCENTRICITY":0.00014111,"INCLINATION":53.2167,"RA_OF_ASC_NODE":247.7522,"ARG_OF_PERICENTER":91.0979,"MEAN_ANOMALY":269.0174,"EPHEMERIS_TYPE":0,"CLASSIFICATION_TYPE":"U","NORAD_CAT_ID":51461,"ELEMENT_SET_NO":999,"REV_AT_EPOCH":20366,"BSTAR":-4.4110808e-5,"MEAN_MOTION_DOT":-9.9e-6,"MEAN_MOTION_DDOT":0},{"OBJECT_NAME":"STARLINK-3166","OBJECT_ID":"2022-010G","EPOCH":"2025-10-07T08:31:26.249952","MEAN_MOTION":15.08839092,"ECCENTRICITY":0.00015407,"INCLINATION":53.2167,"RA_OF_ASC_NODE":247.4784,"ARG_OF_PERICENTER":95.4349,"MEAN_ANOMALY":264.6819,"EPHEMERIS_TYPE":0,"CLASSIFICATION_TYPE":"U","NORAD_CAT_ID":51462,"ELEMENT_SET_NO":999,"REV_AT_EPOCH":20367,"BSTAR":8.42875e-6,"MEAN_MOTION_DOT":-1.54e-6,"MEAN_MOTION_DDOT":0},{"OBJECT_NAME":"STARLINK-3419","OBJECT_ID":"2022-010H","EPOCH":"2025-10-07T07:52:57.118368","MEAN_MOTION":15.08842739,"ECCENTRICITY":0.00015641,"INCLINATION":53.2175,"RA_OF_ASC_NODE":247.5885,"ARG_OF_PERICENTER":90.8274,"MEAN_ANOMALY":269.2898,"EPHEMERIS_TYPE":0,"CLASSIFICATION_TYPE":"U","NORAD_CAT_ID":51463,"ELEMENT_SET_NO":999,"REV_AT_EPOCH":20336,"BSTAR":2.9748746e-5,"MEAN_MOTION_DOT":1.86e-6,"MEAN_MOTION_DDOT":0},{"OBJECT_NAME":"STARLINK-3189","OBJECT_ID":"2022-010J","EPOCH":"2025-10-07T08:19:27.251616","MEAN_MOTION":15.08839404,"ECCENTRICITY":0.00013901,"INCLINATION":53.2167,"RA_OF_ASC_NODE":247.5052,"ARG_OF_PERICENTER":92.1766,"MEAN_ANOMALY":267.9385,"EPHEMERIS_TYPE":0,"CLASSIFICATION_TYPE":"U","NORAD_CAT_ID":51464,"ELEMENT_SET_NO":999,"REV_AT_EPOCH":20417,"BSTAR":7.8802884e-5,"MEAN_MOTION_DOT":9.66e-6,"MEAN_MOTION_DDOT":0},{"OBJECT_NAME":"STARLINK-3401","OBJECT_ID":"2022-010K","EPOCH":"2025-10-07T08:14:09.113856","MEAN_MOTION":15.08839434,"ECCENTRICITY":0.00013302,"INCLINATION":53.2166,"RA_OF_ASC_NODE":247.5215,"ARG_OF_PERICENTER":96.0295,"MEAN_ANOMALY":264.0849,"EPHEMERIS_TYPE":0,"CLASSIFICATION_TYPE":"U","NORAD_CAT_ID":51465,"ELEMENT_SET_NO":999,"REV_AT_EPOCH":20417,"BSTAR":3.753461e-5,"MEAN_MOTION_DOT":3.1e-6,"MEAN_MOTION_DDOT":0},{"OBJECT_NAME":"STARLINK-3178","OBJECT_ID":"2022-010M","EPOCH":"2025-10-07T07:47:39.631200","MEAN_MOTION":15.08837471,"ECCENTRICITY":0.00018148,"INCLINATION":53.2166,"RA_OF_ASC_NODE":247.6033,"ARG_OF_PERICENTER":91.7931,"MEAN_ANOMALY":268.3269,"EPHEMERIS_TYPE":0,"CLASSIFICATION_TYPE":"U","NORAD_CAT_ID":51467,"ELEMENT_SET_NO":999,"REV_AT_EPOCH":20336,"BSTAR":0.00020125399,"MEAN_MOTION_DOT":2.916e-5,"MEAN_MOTION_DDOT":0},{"OBJECT_NAME":"STARLINK-3174","OBJECT_ID":"2022-010N","EPOCH":"2025-10-07T04:47:29.244192","MEAN_MOTION":15.08842719,"ECCENTRICITY":0.00016331,"INCLINATION":53.2163,"RA_OF_ASC_NODE":248.1276,"ARG_OF_PERICENTER":88.9947,"MEAN_ANOMALY":271.1233,"EPHEMERIS_TYPE":0,"CLASSIFICATION_TYPE":"U","NORAD_CAT_ID":51468,"ELEMENT_SET_NO":999,"REV_AT_EPOCH":20334,"BSTAR":-5.4252632e-5,"MEAN_MOTION_DOT":-1.151e-5,"MEAN_MOTION_DDOT":0},{"OBJECT_NAME":"STARLINK-3182","OBJECT_ID":"2022-010P","EPOCH":"2025-10-07T08:24:45.415296","MEAN_MOTION":15.08826777,"ECCENTRICITY":0.00014558,"INCLINATION":53.217,"RA_OF_ASC_NODE":247.4895,"ARG_OF_PERICENTER":101.1546,"MEAN_ANOMALY":258.961,"EPHEMERIS_TYPE":0,"CLASSIFICATION_TYPE":"U","NORAD_CAT_ID":51469,"ELEMENT_SET_NO":999,"REV_AT_EPOCH":20367,"BSTAR":0.00020737304,"MEAN_MOTION_DOT":3.013e-5,"MEAN_MOTION_DDOT":0}]
