51144,STARLINK-3185,2022,95.44,260.0,+,53.22,Active,1,LEO,USA,USA,Commercial,Communications,Falcon,1 51144U 22005AS  25280.36067599  .00001790  00000+0  13054-3 0  9998,2 51144  53.2169 267.4504 0001394  86.1243 273.9909 15.08843362205592,15.08843362,0.0001394,LEO
51146,STARLINK-3354,2022,95.44,260.0,+,53.22,Active,1,LEO,USA,USA,Commercial,Communications,Falcon,1 51146U 22005AU  25280.36804070  .00001826  00000+0  13272-3 0  9995,2 51146  53.2164 267.4197 0001399  81.4396 278.6755 15.08855469205580,15.08855469,0.0001399,LEO
51147,STARLINK-3352,2022,95.19,260.0,P,53.22,Active,1,LEO,USA,USA,Commercial,Communications,Falcon,1 51147U 22005AV  25280.37332111  .00029320  00000+0  16470-2 0  9990,2 51147  53.2133 276.3021 0004732   9.4126 350.6956 15.13099372205467,15.13099372,0.0004732,LEO
51148,STARLINK-3359,2022,95.44,260.0,+,53.22,Active,1,LEO,USA,USA,Commercial,Communications,Falcon,1 51148U 22005AW  25280.41866257  .00000661  00000+0  59634-4 0  9997,2 51148  53.2161 277.3859 0001377  92.9609 267.1541 15.08839777205450,15.08839777,0.0001377,LEO
51149,STARLINK-3360,2022,95.44,260.0,+,53.22,Active,1,LEO,USA,USA,Commercial,Communications,Falcon,1 51149U 22005AX  25280.37813904  .00000616  00000+0  56782-4 0  9995,2 51149  53.2168 277.1820 0001377  88.5096 271.6054 15.08835866205459,15.08835866,0.0001377,LEO
51150,STARLINK-3357,2022,95.44,260.0,+,53.22,Active,1,LEO,USA,USA,Commercial,Communications,Falcon,1 51150U 22005AY  25280.24927320  .00000835  00000+0  70520-4 0  9990,2 51150  53.2163 267.5566 0001362  91.2748 268.8400 15.08840811205588,15.08840811,0.0001362,LEO
51151,STARLINK-3361,2022,90.94,260.0,P,53.19,Active,1,LEO,USA,USA,Commercial,Communications,Falcon,1 51151U 22005AZ  25280.46875404  .00242880  00000+0  96946-3 0  9997,2 51151  53.1946 184.3127 0005124  96.1920 263.9689 15.85392718206772,15.85392718,0.0005124,LEO
51152,STARLINK-3364,2022,95.44,260.0,+,53.22,Active,1,LEO,USA,USA,Commercial,Communications,Falcon,1 51152U 22005BA  25280.42131122  .00002633  00000+0  18345-3 0  9993,2 51152  53.2162 276.7858 0001311  84.9932 275.1210 15.08835107205462,15.08835107,0.0001311,LEO
51461,STARLINK-3181,2022,95.44,260.0,+,53.22,Active,1,LEO,USA,USA,Commercial,Communications,Falcon,1 51461U 22010F   25280.29165835 -.00000990  00000+0 -44111-4 0  9992,2 51461  53.2167 247.7522 0001411  91.0979 269.0174 15.08824535203661,15.08824535,0.0001411,LEO
51462,STARLINK-3166,2022,95.44,260.0,+,53.22,Active,1,LEO,USA,USA,Commercial,Communications,Falcon,1 51462U 22010G   25280.35516493 -.00000154  00000+0  84287-5 0  9990,2 51462  53.2167 247.4784 0001540  95.4349 264.6819 15.08839092203673,15.08839092,0.000154,LEO
51463,STARLINK-3419,2022,95.44,260.0,+,53.22,Active,1,LEO,USA,USA,Commercial,Communications,Falcon,1 51463U 22010H   25280.32843887  .00000186  00000+0  29749-4 0  9993,2 51463  53.2175 247.5885 0001564  90.8274 269.2898 15.08842739203364,15.08842739,0.0001564,LEO
51464,STARLINK-3189,2022,95.44,260.0,+,53.21,Active,1,LEO,USA,USA,Commercial,Communications,Falcon,1 51464U 22010J   25280.34684319  .00000966  00000+0  78803-4 0  9990,2 51464  53.2167 247.5052 0001390  92.1766 267.9385 15.08839404204171,15.08839404,0.000139,LEO
51465,STARLINK-3401,2022,95.44,260.0,+,53.22,Active,1,LEO,USA,USA,Commercial,Communications,Falcon,1 51465U 22010K   25280.34316104  .00000310  00000+0  37535-4 0  9995,2 51465  53.2166 247.5215 0001330  96.0295 264.0849 15.08839434204172,15.08839434,0.000133,LEO
51467,STARLINK-3178,2022,95.44,260.0,+,53.22,Active,1,LEO,USA,USA,Commercial,Communications,Falcon,1 51467U 22010M   25280.32476425  .00002916  00000+0  20125-3 0  9998,2 51467  53.2166 247.6033 0001814  91.7931 268.3269 15.08837471203361,15.08837471,0.0001814,LEO
51468,STARLINK-3174,2022,95.44,260.0,+,53.22,Active,1,LEO,USA,USA,Commercial,Communications,Falcon,1 51468U 22010N   25280.19964403 -.00001151  00000+0 -54253-4 0  9994,2 51468  53.2163 248.1276 0001633  88.9947 271.1233 15.08842719203340,15.08842719,0.0001633,LEO
51469,STARLINK-3182,2022,95.44,260.0,+,53.22,Active,1,LEO,USA,USA,Commercial,Communications,Falcon,1 51469U 22010P   25280.35052564  .00003013  00000+0  20737-3 0  9995,2 51469  53.2170 247.4895 0001455 101.1546 258.9610 15.08826777203677,15.08826777,0.0001455,LEO
